OBJECT_NAME,OBJECT_ID,EPOCH,MEAN_MOTION,ECCENTRICITY,INCLINATION,RA_OF_ASC_NODE,ARG_OF_PERICENTER,MEAN_ANOMALY,EPHEMERIS_TYPE,CLASSIFICATION_TYPE,NORAD_CAT_ID,ELEMENT_SET_NO,REV_AT_EPOCH,BSTAR,MEAN_MOTION_DOT,MEAN_MOTION_DDOT
ONEWEB-0156,2021-025L,2024-01-20T08:00:16.947936,13.13468879,.0001398,87.9015,135.1447,104.1415,255.9870,0,U,48052,999,13820,-.56433E-3,-.193E-5,0
ONEWEB-0161,2021-025M,2024-01-20T09:11:08.270304,13.13470441,.0001557,87.9016,135.1383,98.4371,261.6935,0,U,48053,999,13814,.10684E-2,.403E-5,0
ONEWEB-0157,2021-025P,2024-01-20T08:50:33.057024,13.13470713,.0001379,87.9010,135.1524,100.4171,259.7113,0,U,48055,999,13820,-.22658E-3,-.7E-6,0
ONEWEB-0162,2021-025Q,2024-01-20T07:57:59.326560,13.13469473,.0001506,87.9012,135.1574,105.9589,254.1706,0,U,48056,999,13817,-.33509E-3,-.11E-5,0
ONEWEB-0163,2021-025V,2024-01-20T08:09:25.076448,13.13468381,.000152,87.9012,135.1578,95.0693,265.0610,0,U,48061,999,13831,-.69237E-3,-.24E-5,0
ONEWEB-0159,2021-025W,2024-01-20T09:43:07.428576,13.13468081,.0001363,87.9013,135.1301,100.9176,259.2106,0,U,48062,999,13824,-.40283E-3,-.134E-5,0
ONEWEB-0164,2021-025X,2024-01-20T09:18:00.316224,13.13469801,.0001714,87.9014,135.1433,103.7354,256.3966,0,U,48063,999,13822,.77003E-3,.294E-5,0
ONEWEB-0151,2021-025AA,2024-01-20T08:43:42.600000,13.13472851,.0001865,87.9010,135.1565,106.6136,253.5198,0,U,48066,999,13822,.17828E-3,.78E-6,0
ONEWEB-0170,2021-025AB,2024-01-20T08:55:08.354208,13.13470556,.0002273,87.9012,135.1560,111.4871,248.6501,0,U,48067,999,13818,.79765E-3,.304E-5,0
ONEWEB-0168,2021-025AC,2024-01-20T08:34:33.168576,13.13471423,.0001545,87.9016,135.1245,103.8910,256.2391,0,U,48068,999,13819,-.1015E-2,-.358E-5,0
ONEWEB-0173,2021-025AD,2024-01-20T08:23:08.566944,13.13470266,.0001763,87.9015,135.1366,88.6943,271.4388,0,U,48069,999,13843,-.61737E-3,-.213E-5,0
ONEWEB-0172,2021-025AF,2024-01-20T08:46:00.157440,13.13469982,.000174,87.9016,135.1350,99.7685,260.3640,0,U,48071,999,13914,.37627E-3,.15E-5,0
ONEWEB-0174,2021-025AG,2024-01-20T08:20:51.170208,13.13472020,.0001446,87.9014,135.1525,109.9008,250.2277,0,U,48072,999,13846,-.7872E-3,-.275E-5,0
ONEWEB-0175,2021-025AH,2024-01-20T09:01:59.999232,13.13471069,.0002026,87.9011,135.1445,104.9086,255.2267,0,U,48073,999,13812,.84873E-3,.323E-5,0
ONEWEB-0177,2021-025AJ,2024-01-20T07:30:34.565184,13.13470831,.0001391,87.9014,135.1624,84.0434,276.0853,0,U,48074,999,13830,.80067E-3,.305E-5,0
ONEWEB-0108,2021-025AL,2024-01-20T08:48:16.294464,13.13472306,.0001549,87.9011,135.1504,116.7066,243.4221,0,U,48076,999,13828,.67723E-3,.26E-5,0
ONEWEB-0176,2021-031A,2024-01-20T07:45:10.281888,13.14501218,.0001803,87.8977,104.6365,106.9625,253.1703,0,U,48210,999,13285,-.49804E-3,-.172E-5,0
ONEWEB-0180,2021-031D,2024-01-20T14:29:21.415776,13.14504455,.0001683,87.8973,104.5689,96.5803,263.5518,0,U,48213,999,13279,.60795E-3,.238E-5,0
