ONEWEB-0156             
1 48052U 21025L   24020.33352949 -.00000193  00000+0 -56433-3 0  9993
2 48052  87.9015 135.1447 0001398 104.1415 255.9870 13.13468879138203
ONEWEB-0161             
1 48053U 21025M   24020.38273461  .00000403  00000+0  10684-2 0  9999
2 48053  87.9016 135.1383 0001557  98.4371 261.6935 13.13470441138144
ONEWEB-0157             
1 48055U 21025P   24020.36843816 -.00000070  00000+0 -22658-3 0  9993
2 48055  87.9010 135.1524 0001379 100.4171 259.7113 13.13470713138206
ONEWEB-0162             
1 48056U 21025Q   24020.33193665 -.00000110  00000+0 -33509-3 0  9993
2 48056  87.9012 135.1574 0001506 105.9589 254.1706 13.13469473138173
ONEWEB-0163             
1 48061U 21025V   24020.33987357 -.00000240  00000+0 -69237-3 0  9999
2 48061  87.9012 135.1578 0001520  95.0693 265.0610 13.13468381138312
ONEWEB-0159             
1 48062U 21025W   24020.40494709 -.00000134  00000+0 -40283-3 0  9994
2 48062  87.9013 135.1301 0001363 100.9176 259.2106 13.13468081138249
ONEWEB-0164             
1 48063U 21025X   24020.38750366  .00000294  00000+0  77003-3 0  9991
2 48063  87.9014 135.1433 0001714 103.7354 256.3966 13.13469801138227
ONEWEB-0151             
1 48066U 21025AA  24020.36368750  .00000078  00000+0  17828-3 0  9993
2 48066  87.9010 135.1565 0001865 106.6136 253.5198 13.13472851138224
ONEWEB-0170             
1 48067U 21025AB  24020.37162447  .00000304  00000+0  79765-3 0  9990
2 48067  87.9012 135.1560 0002273 111.4871 248.6501 13.13470556138184
ONEWEB-0168             
1 48068U 21025AC  24020.35732834 -.00000358  00000+0 -10150-2 0  9995
2 48068  87.9016 135.1245 0001545 103.8910 256.2391 13.13471423138196
ONEWEB-0173             
1 48069U 21025AD  24020.34940471 -.00000213  00000+0 -61737-3 0  9991
2 48069  87.9015 135.1366 0001763  88.6943 271.4388 13.13470266138434
ONEWEB-0172             
1 48071U 21025AF  24020.36527960  .00000150  00000+0  37627-3 0  9999
2 48071  87.9016 135.1350 0001740  99.7685 260.3640 13.13469982139142
ONEWEB-0174             
1 48072U 21025AG  24020.34781447 -.00000275  00000+0 -78720-3 0  9999
2 48072  87.9014 135.1525 0001446 109.9008 250.2277 13.13472020138466
ONEWEB-0175             
1 48073U 21025AH  24020.37638888  .00000323  00000+0  84873-3 0  9991
2 48073  87.9011 135.1445 0002026 104.9086 255.2267 13.13471069138120
ONEWEB-0177             
1 48074U 21025AJ  24020.31290006  .00000305  00000+0  80067-3 0  9993
2 48074  87.9014 135.1624 0001391  84.0434 276.0853 13.13470831138300
ONEWEB-0108             
1 48076U 21025AL  24020.36685526  .00000260  00000+0  67723-3 0  9999
2 48076  87.9011 135.1504 0001549 116.7066 243.4221 13.13472306138288
ONEWEB-0176             
1 48210U 21031A   24020.32303567 -.00000172  00000+0 -49804-3 0  9998
2 48210  87.8977 104.6365 0001803 106.9625 253.1703 13.14501218132855
ONEWEB-0180             
1 48213U 21031D   24020.60372009  .00000238  00000+0  60795-3 0  9992
2 48213  87.8973 104.5689 0001683  96.5803 263.5518 13.14504455132798
